["GOES 1 (SMS-C) [-]      ","1 08366U 75100A   22248.56150054 -.00000234  00000+0  00000+0 0  9998","2 08366   8.0875 294.7183 0002864 248.7358 282.7083  1.00268977171227","GOES 2 [-]              ","1 10061U 77048A   22248.51461015 -.00000184  00000+0  00000+0 0  9997","2 10061   9.6729 306.2388 0010189  25.4990   9.2995  0.99402211 32558","GOES 3 [-]              ","1 10953U 78062A   22248.79685253 -.00000027  00000+0  00000+0 0  9992","2 10953  10.0060 310.7766 0003274 169.8317 171.5064  0.99362312114812","GOES 4 [-]              ","1 11964U 80074A   22248.80278215  .00000083  00000+0  00000+0 0  9990","2 11964  10.9690 314.6017 0031745  77.9885 291.9669  0.99228097113748","GOES 5 [-]              ","1 12472U 81049A   22248.28452611 -.00000277  00000+0  00000+0 0  9990","2 12472  11.8226 326.0092 0002446 184.4150 224.6237  1.00304686109003","GOES 6 [-]              ","1 14050U 83041A   22248.23171566 -.00000265  00000+0  00000+0 0  9997","2 14050  12.3883 331.3251 0005056 157.4631 223.2209  1.00285583202172","GOES 7 [-]              ","1 17561U 87022A   22248.65484074 -.00000341  00000+0  00000+0 0  9992","2 17561  14.1745 347.8849 0005006  81.2489 291.3177  0.99907454113170","GOES 8 [-]              ","1 23051U 94022A   22248.71444817 -.00000255  00000+0  00000+0 0  9993","2 23051  13.2442  23.6161 0005638  58.3460 127.2511  0.98907139110474","GOES 9 [-]              ","1 23581U 95025A   22248.63671439 -.00000081  00000+0  00000+0 0  9995","2 23581  12.7378  23.9659 0008624 111.6608 281.0758  0.98800854 99120","GOES 10 [-]             ","1 24786U 97019A   22248.71479698 -.00000269  00000+0  00000+0 0  9998","2 24786  11.5091  30.1562 0026557 198.3525 342.3653  0.99125719 92382","GOES 11 [-]             ","1 26352U 00022A   22248.75508355 -.00000226  00000+0  00000+0 0  9997","2 26352   8.8503  58.6698 0002374 115.9939 253.2440  0.99045950 38809","GOES 12 [-]             ","1 26871U 01031A   22248.81507741 -.00000194  00000+0  00000+0 0  9993","2 26871   9.6588  47.6422 0003863 336.2624   6.0552  0.99136597 77071","EWS-G1 (GOES 13) [+]    ","1 29155U 06018A   22248.86852972  .00000023  00000+0  00000+0 0  9995","2 29155   0.7862  96.0818 0006084 104.4009 158.6859  1.00274310 29534","GOES 14 [B]             ","1 35491U 09033A   22248.62159168 -.00000103  00000+0  00000+0 0  9996","2 35491   0.4262 267.8752 0017122 302.2777 253.8076  1.00273047 48261","GOES 15 [B]             ","1 36411U 10008A   22248.69552569  .00000040  00000+0  00000+0 0  9991","2 36411   0.3863 276.8732 0004927 250.3027 300.1507  1.00277200 45827","GOES 16 [+]             ","1 41866U 16071A   22248.77775565 -.00000260  00000+0  00000+0 0  9994","2 41866   0.0650 283.1511 0000506 244.6599  21.8381  1.00272225 21275","GOES 17 [+]             ","1 43226U 18022A   22248.76537319  .00000086  00000+0  00000+0 0  9991","2 43226   0.0957 281.1764 0000535 204.6152 357.2771  1.00271769 16587","GOES 18 [+]             ","1 51850U 22021A   22248.76546039  .00000085  00000+0  00000+0 0  9995","2 51850   0.0311  55.2868 0002799 151.1936 276.9530  1.00272565  1947",""]
export {activeSattelites};